KUIPER-00619            
1 69777U 26151Q   26198.45008441  .00012561  00000+0  33433-3 0  9996
2 69777  51.8811 169.3464 0001932  65.4654 294.6534 15.38577098  2367
KUIPER-00621            
1 69778U 26151R   26198.90705242  .00012697  00000+0  34020-3 0  9993
2 69778  51.8792 167.1652 0003139 109.4189 250.7138 15.38358416  2436
KUIPER-00622            
1 69779U 26151S   26198.53029891 -.00002579  00000+0 -59527-4 0  9992
2 69779  51.8738 169.1357 0006772 155.1663 204.9651 15.36960715  2375
KUIPER-00623            
1 69780U 26151T   26198.26556190  .00133416  00000+0  34980-2 0  9998
2 69780  51.8777 170.3650 0006129 146.6000 213.5375 15.37672053  2337
KUIPER-00626            
1 69781U 26151U   26198.93271010 -.00025597  00000+0 -72898-3 0  9991
2 69781  51.8714 167.3279 0009682 170.7412 189.3754 15.35156377  2430
KUIPER-00627            
1 69782U 26151V   26198.93472277 -.00049669  00000+0 -14429-2 0  9991
2 69782  51.8697 167.3391 0010944 175.9224 184.1852 15.34851723  2435
KUIPER-00629            
1 69783U 26151W   26198.91668981 -.00896769  00000+0 -31129-1 0  9995
2 69783  51.8775 167.3500 0006941 164.1206 145.4064 15.31966930  2751
KUIPER-00631            
1 69784U 26151X   26198.91668981 -.01965235  00000+0 -66536-1 0  9992
2 69784  51.8734 167.3463 0008699 169.4356 135.7280 15.33681347  1301
KUIPER-00634            
1 69785U 26151Y   26198.91292746  .00013659  00000+0  37197-3 0  9999
2 69785  51.8777 167.2035 0003745 143.3185 216.8059 15.37783924  2439
KUIPER-00639            
1 69786U 26151Z   26198.53932424 -.00062241  00000+0 -17706-2 0  9998
2 69786  51.8689 169.1889 0009112 170.0527 190.0641 15.35626821  2374
KUIPER-00641            
1 69787U 26151AA  26198.61078528  .00005443  00000+0  17029-3 0  9992
2 69787  51.8674 168.9170 0011514 170.2077 189.9135 15.34689931  2386
KUIPER-00644            
1 69788U 26151AB  26198.91668981  .00030705  00000+0  85475-3 0  9993
2 69788  51.8745 167.3215 0008466 168.8415 144.5711 15.36519684  3365
KUIPER-00646            
1 69789U 26151AC  26198.53864066  .00011396  00000+0  33092-3 0  9997
2 69789  51.8700 169.1868 0009317 172.9789 187.1329 15.35928647  2377
KUIPER-00647            
1 69790U 26151AD  26198.93359441 -.00003560  00000+0 -91444-4 0  9991
2 69790  51.8690 167.3315 0010244 174.9482 185.1609 15.35159083  2433
KUIPER-00662            
1 69791U 26151AE  26198.92512436  .00002308  00000+0  74472-4 0  9995
2 69791  51.8741 167.2814 0008394 168.6243 191.4935 15.36532861  2434
LINK                    
1 69792U 26152A   26198.60314772  .00136758  00000+0  11461-2 0  9999
2 69792  20.5911 308.8596 0025058  28.8585 331.3243 15.67732202  2239
2026-152B               
1 69793U 26152B   26198.55215383  .00033116  00000+0  30884-3 0  9997
2 69793  20.5981 309.4890 0023033  25.7463 334.4126 15.64949376  2225
ISS OBJECT YJ           
1 69794U 98067YJ  26198.95139173  .00019103  00000+0  33995-3 0  9994
2 69794  51.6314 147.7493 0007738 321.3939  38.6496 15.50136578  2422
ISS OBJECT YK           
1 69795U 98067YK  26197.91534796  .00034939  00000+0  59918-3 0  9997
2 69795  51.6314 152.8314 0006665 326.0799  33.9763 15.50831471  2267
ISS OBJECT YL           
1 69796U 98067YL  26198.88331246  .00026954  00000+0  46777-3 0  9997
2 69796  51.6314 148.0449 0008697 321.8507  38.1866 15.50617884  2408
ISS OBJECT YM           
1 69797U 98067YM  26198.88298606  .00027777  00000+0  48085-3 0  9998
2 69797  51.6314 148.0428 0009520 313.1812  46.8381 15.50663132  2398
ISS OBJECT YN           
1 69798U 98067YN  26197.91720558  .00018350  00000+0  32406-3 0  9995
2 69798  51.6316 152.8433 0009212 321.6470  38.3863 15.50372933  2265
PROVES-ELECTRA          
1 69799U 98067YP  26198.17400478  .00024046  00000+0  41820-3 0  9990
2 69799  51.6315 151.5587 0009700 310.8273  49.1874 15.50615173  2295
QIANFAN-201             
1 69800U 26153A   26198.83974110  .00000055  00000+0  17183-4 0  9992
2 69800  88.9972 358.7543 0006199 157.8285 202.3177 14.25481230  1928
QIANFAN-202             
1 69801U 26153B   26198.93269700  .00000100  00000+0  41365-4 0  9996
2 69801  88.9926 358.7377 0006969 166.0620 194.0763 14.18843511  1938
QIANFAN-203             
1 69802U 26153C   26198.92565011  .00000089  00000+0  33351-4 0  9992
2 69802  88.9925 358.7366 0007612 175.0675 185.0592 14.22391056  1939
QIANFAN-204             
1 69803U 26153D   26198.92883892  .00000098  00000+0  38984-4 0  9990
2 69803  88.9926 358.7370 0007927 169.6418 190.4937 14.20114361  1932
QIANFAN-205             
1 69804U 26153E   26198.92706748  .00000096  00000+0  36475-4 0  9996
2 69804  88.9924 358.7365 0007817 173.6212 186.5080 14.22264721  1933
QIANFAN-206             
1 69805U 26153F   26198.91752804  .00000044  00000+0  12897-4 0  9995
2 69805  88.9925 358.7352 0008302 174.2829 185.8459 14.24034614  1932
QIANFAN-207             
1 69806U 26153G   26198.91587802  .00000149  00000+0  58423-4 0  9991
2 69806  88.9925 358.7350 0007739 174.3025 185.8257 14.24250974  1938
